{
    "links": {
        "self": "http://www.neowsapp.com/rest/v1/neo/3767321?api_key=iIulBulltgU6a56xZRHN4H3l9WmuAYTsLGpBGhQ2"
    },
    "id": "3767321",
    "neo_reference_id": "3767321",
    "name": "(2017 BJ92)",
    "designation": "2017 BJ92",
    "nasa_jpl_url": "http://ssd.jpl.nasa.gov/sbdb.cgi?sstr=3767321",
    "absolute_magnitude_h": 22.1,
    "estimated_diameter": {
        "kilometers": {
            "estimated_diameter_min": 0.1010543415,
            "estimated_diameter_max": 0.2259643771
        },
        "meters": {
            "estimated_diameter_min": 101.054341542,
            "estimated_diameter_max": 225.9643771094
        },
        "miles": {
            "estimated_diameter_min": 0.0627922373,
            "estimated_diameter_max": 0.140407711
        },
        "feet": {
            "estimated_diameter_min": 331.5431259047,
            "estimated_diameter_max": 741.3529669956
        }
    },
    "is_potentially_hazardous_asteroid": false,
    "close_approach_data": [
        {
            "close_approach_date": "1992-02-13",
            "close_approach_date_full": "1992-Feb-13 04:31",
            "epoch_date_close_approach": 697955460000,
            "relative_velocity": {
                "kilometers_per_second": "13.591489836",
                "kilometers_per_hour": "48929.3634095334",
                "miles_per_hour": "30402.803614107"
            },
            "miss_distance": {
                "astronomical": "0.232304294",
                "lunar": "90.366370366",
                "kilometers": "34752227.57425378",
                "miles": "21594032.886030964"
            },
            "orbiting_body": "Earth"
        },
        {
            "close_approach_date": "1998-02-20",
            "close_approach_date_full": "1998-Feb-20 10:04",
            "epoch_date_close_approach": 887969040000,
            "relative_velocity": {
                "kilometers_per_second": "8.172089641",
                "kilometers_per_hour": "29419.5227076641",
                "miles_per_hour": "18280.1473179927"
            },
            "miss_distance": {
                "astronomical": "1.8099322229",
                "lunar": "704.0636347081",
                "kilometers": "270762005.390205223",
                "miles": "168243708.5850411574"
            },
            "orbiting_body": "Juptr"
        },
        {
            "close_approach_date": "2017-02-11",
            "close_approach_date_full": "2017-Feb-11 00:40",
            "epoch_date_close_approach": 1486773600000,
            "relative_velocity": {
                "kilometers_per_second": "13.0589930119",
                "kilometers_per_hour": "47012.3748430196",
                "miles_per_hour": "29211.6614684307"
            },
            "miss_distance": {
                "astronomical": "0.2420760392",
                "lunar": "94.1675792488",
                "kilometers": "36214059.842356504",
                "miles": "22502373.3371235952"
            },
            "orbiting_body": "Earth"
        }
    ],
    "orbital_data": {
        "orbit_id": "11",
        "orbit_determination_date": "2017-09-03 06:18:06",
        "first_observation_date": "2017-01-30",
        "last_observation_date": "2017-03-04",
        "data_arc_in_days": 33,
        "observations_used": 54,
        "orbit_uncertainty": "6",
        "minimum_orbit_intersection": ".230021",
        "jupiter_tisserand_invariant": "3.108",
        "epoch_osculation": "2459000.5",
        "eccentricity": ".5309800631962269",
        "semi_major_axis": "2.594464516558381",
        "inclination": "22.89464001678817",
        "ascending_node_longitude": "320.7125885183366",
        "orbital_period": "1526.405878684778",
        "perihelion_distance": "1.216855583595843",
        "perihelion_argument": "180.4266652342174",
        "aphelion_distance": "3.972073449520918",
        "perihelion_time": "2459324.427048666624",
        "mean_anomaly": "283.6024053966141",
        "mean_motion": ".2358481482724586",
        "equinox": "J2000",
        "orbit_class": {
            "orbit_class_type": "AMO",
            "orbit_class_description": "Near-Earth asteroid orbits similar to that of 1221 Amor",
            "orbit_class_range": "1.017 AU < q (perihelion) < 1.3 AU"
        }
    },
    "is_sentry_object": false
}